[{"OBJECT_NAME":"STARLINK-5240","OBJECT_ID":"2022-141AG","EPOCH":"2026-03-09T23:27:20.958624","MEAN_MOTION":15.08845298,"ECCENTRICITY":0.00017213,"INCLINATION":53.2185,"RA_OF_ASC_NODE":2.6546,"ARG_OF_PERICENTER":91.2272,"MEAN_ANOMALY":268.8918,"EPHEMERIS_TYPE":0,"CLASSIFICATION_TYPE":"U","NORAD_CAT_ID":54187,"ELEMENT_SET_NO":999,"REV_AT_EPOCH":18590,"BSTAR":0.00030133953,"MEAN_MOTION_DOT":4.512e-5,"MEAN_MOTION_DDOT":0},{"OBJECT_NAME":"OBJECT K","OBJECT_ID":"2017-042K","EPOCH":"2026-03-09T21:28:20.621568","MEAN_MOTION":15.07994228,"ECCENTRICITY":0.00097557,"INCLINATION":97.4104,"RA_OF_ASC_NODE":233.8721,"ARG_OF_PERICENTER":49.2775,"MEAN_ANOMALY":310.9299,"EPHEMERIS_TYPE":0,"CLASSIFICATION_TYPE":"U","NORAD_CAT_ID":42834,"ELEMENT_SET_NO":999,"REV_AT_EPOCH":47201,"BSTAR":0.00042776846,"MEAN_MOTION_DOT":6.528e-5,"MEAN_MOTION_DDOT":0}]
